SAR-LUPE 2              
1 31797U 07030A   26150.51395677  .00038344  00000+0  74903-3 0  9991
2 31797  98.1026 252.8009 0011299 166.1111 194.0449 15.47308917 54207
SAPPHIRE                
1 39088U 13009C   26150.52396046  .00000135  00000+0  62331-4 0  9997
2 39088  98.4255 330.3999 0010177 305.4298  54.5937 14.35235277694041
PRAETORIAN SDA_602      
1 65565U 25203A   26150.09960833  .00000100  00000+0  78816-4 0  9995
2 65565  81.3045  27.5244 0005006 239.1476 120.9188 13.84341266 36193
PRAETORIAN SDA_603      
1 65566U 25203B   26150.12057801  .00000144  00000+0  11931-3 0  9994
2 65566  81.3050  27.4090 0008582 240.0506 119.9798 13.83903240 36207
PRAETORIAN SDA_604      
1 65567U 25203C   26150.05675531  .00000153  00000+0  12940-3 0  9994
2 65567  81.3068  27.8522 0004595 248.5178 111.5488 13.83044747 36177
PRAETORIAN SDA_605      
1 65568U 25203D   26150.17179869  .00000126  00000+0  10405-3 0  9995
2 65568  81.3032  27.4265 0007298 235.8346 124.2118 13.83432461 36207
PRAETORIAN SDA_606      
1 65569U 25203E   26150.15399672  .00000129  00000+0  10688-3 0  9996
2 65569  81.3068  27.6569 0004930 235.4571 124.6120 13.83405301 36190
PRAETORIAN SDA_607      
1 65570U 25203F   26150.17344545  .00000304  00000+0  26199-3 0  9998
2 65570  81.3050  27.3297 0007944 240.1124 119.9244 13.84282587 36210
PRAETORIAN SDA_608      
1 65571U 25203G   26150.14476631  .00000137  00000+0  11310-3 0  9991
2 65571  81.3020  27.5111 0005094 246.8024 113.2596 13.83814801 36194
PRAETORIAN SDA_609      
1 65572U 25203H   26150.15548089  .00000274  00000+0  23452-3 0  9992
2 65572  81.3060  27.4880 0005980 238.2471 121.8103 13.84283233 36207
PRAETORIAN SDA_610      
1 65573U 25203J   26150.12497935  .00000097  00000+0  77173-4 0  9996
2 65573  81.3021  27.4882 0005719 243.0680 116.9892 13.83850442 36192
PRAETORIAN SDA_611      
1 65574U 25203K   26150.11867914  .00000307  00000+0  26911-3 0  9991
2 65574  81.3029  27.6456 0004672 252.0212 108.0435 13.83307848 36189
PRAETORIAN SDA_612      
1 65575U 25203L   26150.05859378  .00000239  00000+0  20052-3 0  9994
2 65575  81.3045  27.3315 0008368 239.7681 120.2648 13.85036333 36202
PRAETORIAN SDA_613      
1 65576U 25203M   26150.11832117  .00000120  00000+0  99672-4 0  9998
2 65576  81.3014  27.6280 0004792 239.0364 121.0321 13.82763608 36184
PRAETORIAN SDA_614      
1 65577U 25203N   26150.11661920  .00000118  00000+0  94291-4 0  9990
2 65577  81.3029  27.3507 0006231 237.4284 122.6272 13.84776481 36214
PRAETORIAN SDA_615      
1 65578U 25203P   26150.16131316  .00000250  00000+0  21310-3 0  9995
2 65578  81.3042  27.2618 0007917 237.8935 122.1454 13.84432032 36219
PRAETORIAN SDA_616      
1 65579U 25203Q   26150.11735037  .00000200  00000+0  17147-3 0  9999
2 65579  81.3077  27.7794 0004560 249.4028 110.6639 13.83265604 36182
PRAETORIAN SDA_617      
1 65580U 25203R   26150.13742054  .00000089  00000+0  70953-4 0  9990
2 65580  81.3051  27.5935 0006493 237.8653 122.1873 13.83148511 36199
PRAETORIAN SDA_618      
1 65581U 25203S   26150.05818595  .00000219  00000+0  18428-3 0  9999
2 65581  81.3037  27.2939 0008849 239.9054 120.1226 13.84773340 36207
PRAETORIAN SDA_619      
1 65582U 25203T   26150.15521078 -.00004701  00000+0 -42531-2 0  9991
2 65582  81.3047  27.4695 0006809 235.5962 124.4551 13.83891022 36838
PRAETORIAN SDA_620      
1 65583U 25203U   26150.10831563  .00000238  00000+0  20451-3 0  9997
2 65583  81.3045  27.5347 0006854 232.9577 127.0953 13.83616646 36196
PRAETORIAN SDA_621      
1 65584U 25203V   26150.15679806  .00000162  00000+0  13573-3 0  9996
2 65584  81.3034  27.4140 0006533 231.5970 128.4600 13.83799223 36200
PRAETORIAN SDA_601      
1 65585U 25203W   26150.11936521  .00000243  00000+0  21101-3 0  9999
2 65585  81.3061  27.7258 0004543 252.1334 107.9326 13.83271311 36183
